{"fetched_at":"2026-04-02T16:57:59Z","count":7745,"tles":[{"name":"UNICORN-2P","line1":"1 63981U 25052BT  26061.66207648  .09021256  24713-5  43615-2 0  9993","line2":"2 63981  97.3657 322.3273 0007441 165.4209 194.7296 16.21197985 54085","category":"Other"},{"name":"CLUSTER II-FM6 (SALSA)","line1":"1 26411U 00041B   24252.84967699  .00055456 -32455-3  00000+0 0  9999","line2":"2 26411 150.0716  39.2521 9137808 255.7706   0.1507  0.44420089 28482","category":"Other"},{"name":"SITRO-AIS 28","line1":"1 59071U 24039U   26092.21083549  .00005863  00000+0  46187-3 0  9991","line2":"2 59071  95.3940 183.0938 0144025 232.2204 126.5906 14.93096882113405","category":"Other"},{"name":"YAOGAN-13","line1":"1 37941U 11072A   25053.20566179  .07261498  27742-5  80897-3 0  9995","line2":"2 37941  97.6847  66.5996 0005273 226.2633 199.5818 16.37208404735572","category":"Other"},{"name":"SHIJIAN-6 02A (SJ-6 02A)","line1":"1 29505U 06046A   26092.14504772  .00006150  00000+0  32325-3 0  9995","line2":"2 29505  97.6453 132.6584 0004372  61.6189 298.5484 15.16049643 60749","category":"Other"},{"name":"VELOX-PII","line1":"1 39438U 13066Y   26092.09413169  .00003507  00000+0  33736-3 0  9994","line2":"2 39438  97.8685  43.4304 0051860 234.1408 125.4988 14.92662800666487","category":"Other"},{"name":"LEO EXPRESS 1","line1":"1 58301U 23174AX  26092.19907434  .00017777  00000+0  50127-3 0  9996","line2":"2 58301  97.5205 176.2443 0076648  33.7787 326.8304 15.33504158133244","category":"Other"},{"name":"APRIZESAT 7","line1":"1 39416U 13066A   26092.14184383  .00002088  00000+0  21228-3 0  9995","line2":"2 39416  97.7636  46.4986 0037505 102.9112 257.6300 14.91361656669899","category":"Other"},{"name":"QB50P1","line1":"1 40025U 14033R   26091.99790891  .00010802  00000+0  54916-3 0  9990","line2":"2 40025  98.0997  97.8650 0010594 121.0933 239.1340 15.17012540641478","category":"Other"},{"name":"JILIN-1 04","line1":"1 43022U 17074A   26092.20018353  .00020525  00000+0  50752-3 0  9996","line2":"2 43022  97.4786 199.9382 0005461 108.6825 251.5014 15.40482483462561","category":"Other"},{"name":"GPM-CORE","line1":"1 39574U 14009C   26092.14328752  .00019201  00000+0  40435-3 0  9994","line2":"2 39574  64.9739 202.8974 0012488 274.3716  85.5998 15.45268231686060","category":"Other"},{"name":"YAOGAN-4","line1":"1 33446U 08061A   26092.06507583  .00001574  00000+0  19986-3 0  9990","line2":"2 33446  97.9270  26.1642 0013475 323.8699  36.1602 14.83047741934381","category":"Other"},{"name":"2022-023F","line1":"1 51951U 22023F   26092.18549782  .00020725  00000+0  83872-3 0  9999","line2":"2 51951  63.4529 171.8171 0123987 344.5426  15.1912 15.17887692226177","category":"Other"},{"name":"WILDFIRE 1","line1":"1 57764U 23133H   26092.07580456  .00000081  00000+0  60855-4 0  9991","line2":"2 57764  80.9965  80.0881 0005971 197.0177 163.0780 13.85719626130510","category":"Other"},{"name":"JILIN-1 GAOFEN 3D33","line1":"1 52450U 22048H   23362.45571510  .00012431  00000+0  56472-3 0  9993","line2":"2 52450  97.6181  74.9956 0013609  10.9961 349.1568 15.20833127 91160","category":"Other"},{"name":"FLORIPASAT-1","line1":"1 44885U 19093G   26092.21992492  .00007977  00000+0  59597-3 0  9995","line2":"2 44885  97.7870 185.9596 0011298 329.6249  30.4320 15.03030055341235","category":"Other"},{"name":"PE2_FLT2  (TYVAK-0262)","line1":"1 59104U 24043G   26092.12290571  .00003607  00000+0  31996-3 0  9994","line2":"2 59104  97.8282 222.6536 0004580 305.2357  54.8435 14.96827160113272","category":"Other"},{"name":"NUSAT-1 (FRESCO)","line1":"1 41557U 16033B   23293.83982215  .05251874  24701-5  95107-3 0  9998","line2":"2 41557  97.3620  49.6734 0010102 286.5405  73.4780 16.32379620413408","category":"Other"},{"name":"OUTPOST MISSION 1","line1":"1 56226U 23084BK  26091.94520548  .00131392  00000+0  87203-3 0  9994","line2":"2 56226  97.5976 247.2151 0003629 195.3183 164.7972 15.75082997156931","category":"ISS"},{"name":"COSMOS 2550","line1":"1 48865U 21056A   26091.47039022  .00005639  00000+0  17705-3 0  9995","line2":"2 48865  67.1445 331.9738 0008328 269.3207  90.6993 15.33839536266954","category":"Other"},{"name":"STARLINK-32298","line1":"1 61525U 24183S   26092.11468575 -.00001089  00000+0 -24630-4 0  9991","line2":"2 61525  53.1603  33.2913 0001193  76.7317 283.3817 15.30203827 83245","category":"Starlink"},{"name":"CAPELLA-8-WHITNEY","line1":"1 51071U 22002CR  23249.06545155  .35393296  25458-5  30023-2 0  9990","line2":"2 51071  97.4006 322.5782 0015575 273.5387 175.0653 16.38892911 91532","category":"Other"},{"name":"ISS OBJECT XY","line1":"1 66912U 98067XY  26091.87338559  .00121475  00000+0  10364-2 0  9995","line2":"2 66912  51.6257 309.4565 0004751 225.3322 134.7288 15.68620827 18782","category":"ISS"},{"name":"AURA","line1":"1 28376U 04026A   26092.11667747  .00001442  00000+0  30247-3 0  9995","line2":"2 28376  98.3350  47.9781 0001384  94.4410 265.6948 14.61204345155102","category":"Other"},{"name":"MANDRAKE 2 ABLE","line1":"1 48907U 21059AE  26092.03534554  .00026691  00000+0  44589-3 0  9999","line2":"2 48907  97.7049 276.1863 0004356 265.9657  94.1097 15.51906108265309","category":"Other"},{"name":"FENGYUN 1C DEB","line1":"1 29909U 99025HF  26092.07626308  .00010204  00000+0  22240-2 0  9993","line2":"2 29909  98.6332 204.7434 0036747  40.5462 138.8118 14.57685159   128","category":"Weather"},{"name":"COSMOS 2251 DEB","line1":"1 35602U 93036AMV 26091.85440052  .00021885  00000+0  48117-3 0  9990","line2":"2 35602  73.9925 304.3677 0077168 339.1932  33.1552 15.40727425917847","category":"Other"},{"name":"OCEANSAT-2","line1":"1 35931U 09051A   26092.20972661  .00000093  00000+0  89409-4 0  9993","line2":"2 35931  98.2312  86.6609 0017575  88.1470 272.1709 13.99654380868701","category":"Other"},{"name":"HYSIS","line1":"1 43719U 18096A   26092.15002190  .00001681  00000+0  23669-3 0  9999","line2":"2 43719  97.9903 159.4731 0001598  69.1165 291.0217 14.78617334396187","category":"Other"},{"name":"FENGYUN 1C DEB","line1":"1 36644U 99025DXN 26084.30499640  .00001431  00000+0  15244-2 0  9999","line2":"2 36644  98.4283 213.7106 0283344 270.1842  86.6840 13.59467765629616","category":"Weather"},{"name":"CHEOPS","line1":"1 44874U 19092B   26092.11284722  .00000449  00000+0  99032-4 0  9997","line2":"2 44874  98.1519 281.4370 0010125 345.0712  15.0189 14.61909915334782","category":"Other"},{"name":"GLOBAL-2","line1":"1 43812U 18099BG  26092.12084542  .00004369  00000+0  28601-3 0  9991","line2":"2 43812  97.3645 131.7884 0007216  64.6218 295.5757 15.08220281400440","category":"Other"},{"name":"FENGYUN 1C DEB","line1":"1 31890U 99025CKR 26088.87353827  .00000221  00000+0  14570-3 0  9997","line2":"2 31890  98.7165 102.1128 0071351 299.3019  60.1035 14.10187141656622","category":"Weather"},{"name":"FENGYUN 1C DEB","line1":"1 31997U 99025CQA 26091.48719861  .00001314  00000+0  13889-2 0  9995","line2":"2 31997 102.5016 170.4130 0283992  26.7453 334.8010 13.61135270631763","category":"Weather"},{"name":"FENGYUN 1C DEB","line1":"1 35236U 99025DQU 26086.54589930  .00001856  00000+0  51292-3 0  9990","line2":"2 35236  98.8145  22.7621 0083444 236.8905 122.4256 14.45998194994460","category":"Weather"},{"name":"COSMOS 2531 (RODNIK-S *)","line1":"1 43752U 18097B   26092.16972861  .00000008  00000+0 -12947-4 0  9990","line2":"2 43752  82.5134 270.5016 0016260 218.3979 141.5944 12.42910609332865","category":"Other"},{"name":"COSMOS 2535","line1":"1 44421U 19039A   26092.21709730  .00001525  00000+0  15638-3 0  9993","line2":"2 44421  97.5853 123.2669 0009981 103.9852 256.2477 14.91799778365311","category":"Other"},{"name":"GOSAT (IBUKI)","line1":"1 33492U 09002A   26092.18353588  .00001089  00000+0  20038-3 0  9995","line2":"2 33492  98.0790 204.2548 0001026  94.0103 266.1218 14.67546504920310","category":"Other"},{"name":"COSMOS 2509 (RODNIK-S *)","line1":"1 40922U 15050C   26092.13755877  .00000132  00000+0  87987-3 0  9997","line2":"2 40922  82.4854 125.6547 0014066 201.6513 158.3973 12.42881617477436","category":"Other"},{"name":"CZ-6A DEB","line1":"1 60662U 24140BP  24249.20611222  .00000885  00000+0  47700-3 0  9999","line2":"2 60662  88.9918 347.7996 0096005 113.7394 247.3897 14.09532448  3854","category":"Other"},{"name":"COSMOS 2532 (RODNIK-S *)","line1":"1 43753U 18097C   26092.19780005  .00000121  00000+0  79871-3 0  9994","line2":"2 43753  82.5078 269.3042 0017596 220.7396 139.2369 12.42907539332831","category":"Other"},{"name":"EOS-6 (OCEANSAT-3)","line1":"1 54361U 22158A   26092.23703028  .00000386  00000+0  11803-3 0  9993","line2":"2 54361  98.3484 191.4600 0001555 138.9667 221.1642 14.46978848176858","category":"Other"},{"name":"STARLINK-4621","line1":"1 53676U 22105AE  26092.15282304  .00001304  00000+0  94595-4 0  9994","line2":"2 53676  97.6033 333.2708 0002205  63.9050 296.2403 15.05650836196769","category":"Starlink"},{"name":"CLOUDSAT","line1":"1 29107U 06016A   26092.14379373  .00001701  00000+0  20041-3 0  9996","line2":"2 29107  98.4014 125.1968 0004630 205.0440 155.0550 14.86236187 63216","category":"Other"},{"name":"YAM-3","line1":"1 48915U 21059AN  26092.03396813  .00015133  00000+0  30323-3 0  9992","line2":"2 48915  97.6983 274.1125 0004027 268.0584  92.0203 15.46827069265219","category":"Other"},{"name":"CALIPSO","line1":"1 29108U 06016B   26092.22809877  .00001668  00000+0  29222-3 0  9995","line2":"2 29108  98.4519 105.2958 0001559 107.1846 252.9529 14.69201198 61906","category":"Other"},{"name":"RESOURCESAT-2","line1":"1 37387U 11015A   26092.14741721 -.00000359  00000+0 -14189-3 0  9996","line2":"2 37387  98.7704 160.0931 0010477 109.1638 251.0675 14.22142771775378","category":"Other"},{"name":"CHOMPTT","line1":"1 43855U 18104G   24134.10951713  .07815800 -14920-5  72575-3 0  9990","line2":"2 43855  84.9879 294.4476 0011122 263.9277  96.0761 16.38682570302102","category":"Other"}]}